{"type": "FeatureCollection", "features": [{"type": "Feature", "properties": {"norad_id": 36828, "name": "BEIDOU-2 IGSO-1 (C06)", "group": "beidou", "lat": 6.897192018526632, "lon": -20.354676249649856, "alt_km": 35629.99638240544, "timestamp": "2025-12-12T09:49:08.996135+00:00", "meta": {"OBJECT_NAME": "BEIDOU-2 IGSO-1 (C06)", "OBJECT_ID": "2010-036A", "EPOCH": "2025-12-11T21:55:21.552960", "MEAN_MOTION": 1.00276302, "ECCENTRICITY": 0.0051169, "INCLINATION": 54.2856, "RA_OF_ASC_NODE": 164.6546, "ARG_OF_PERICENTER": 215.8043, "MEAN_ANOMALY": 137.1278, "EPHEMERIS_TYPE": 0, "CLASSIFICATION_TYPE": "U", "NORAD_CAT_ID": 36828, "ELEMENT_SET_NO": 999, "REV_AT_EPOCH": 5621, "BSTAR": 0, "MEAN_MOTION_DOT": -4.7e-07, "MEAN_MOTION_DDOT": 0}, "tle": {"line1": "1 36828U 10036A   25345.91344390 -.00000047  00000+0  00000+0 0  9999", "line2": "2 36828  54.2856 164.6546 0051169 215.8043 137.1278  1.00276302 56210"}}, "geometry": {"type": "Point", "coordinates": [-20.354676249649856, 6.897192018526632]}}, {"type": "Feature", "properties": {"norad_id": 37210, "name": "BEIDOU-2 G4 (C04)", "group": "beidou", "lat": -2.080482254107691, "lon": 28.85600373070143, "alt_km": 35814.90582441751, "timestamp": "2025-12-12T09:49:08.996158+00:00", "meta": {"OBJECT_NAME": "BEIDOU-2 G4 (C04)", "OBJECT_ID": "2010-057A", "EPOCH": "2025-12-12T03:58:13.304064", "MEAN_MOTION": 1.00271452, "ECCENTRICITY": 0.0010894, "INCLINATION": 3.1836, "RA_OF_ASC_NODE": 69.9405, "ARG_OF_PERICENTER": 190.7515, "MEAN_ANOMALY": 40.0526, "EPHEMERIS_TYPE": 0, "CLASSIFICATION_TYPE": "U", "NORAD_CAT_ID": 37210, "ELEMENT_SET_NO": 999, "REV_AT_EPOCH": 5541, "BSTAR": 0, "MEAN_MOTION_DOT": -1.03e-06, "MEAN_MOTION_DDOT": 0}, "tle": {"line1": "1 37210U 10057A   25346.16543176 -.00000103  00000+0  00000+0 0  9992", "line2": "2 37210   3.1836  69.9405 0010894 190.7515  40.0526  1.00271452 55413"}}, "geometry": {"type": "Point", "coordinates": [28.85600373070143, -2.080482254107691]}}, {"type": "Feature", "properties": {"norad_id": 37256, "name": "BEIDOU-2 IGSO-2 (C07)", "group": "beidou", "lat": 40.87450588840563, "lon": -34.48187226687656, "alt_km": 35964.198834406256, "timestamp": "2025-12-12T09:49:08.996173+00:00", "meta": {"OBJECT_NAME": "BEIDOU-2 IGSO-2 (C07)", "OBJECT_ID": "2010-068A", "EPOCH": "2025-12-03T17:22:36.027840", "MEAN_MOTION": 1.0028872, "ECCENTRICITY": 0.00492449, "INCLINATION": 47.9042, "RA_OF_ASC_NODE": 274.2614, "ARG_OF_PERICENTER": 216.1411, "MEAN_ANOMALY": 310.24, "EPHEMERIS_TYPE": 0, "CLASSIFICATION_TYPE": "U", "NORAD_CAT_ID": 37256, "ELEMENT_SET_NO": 999, "REV_AT_EPOCH": 5483, "BSTAR": 0, "MEAN_MOTION_DOT": -2.25e-06, "MEAN_MOTION_DDOT": 0}, "tle": {"line1": "1 37256U 10068A   25337.72402810 -.00000225  00000+0  00000+0 0  9990", "line2": "2 37256  47.9042 274.2614 0049244 216.1411 310.2400  1.00288720 54834"}}, "geometry": {"type": "Point", "coordinates": [-34.48187226687656, 40.87450588840563]}}, {"type": "Feature", "properties": {"norad_id": 37384, "name": "BEIDOU-2 IGSO-3 (C08)", "group": "beidou", "lat": -53.50424700009985, "lon": -3.5993871925547323, "alt_km": 35836.04171313126, "timestamp": "2025-12-12T09:49:08.996187+00:00", "meta": {"OBJECT_NAME": "BEIDOU-2 IGSO-3 (C08)", "OBJECT_ID": "2011-013A", "EPOCH": "2025-12-11T15:37:03.975744", "MEAN_MOTION": 1.00271037, "ECCENTRICITY": 0.00354451, "INCLINATION": 62.1431, "RA_OF_ASC_NODE": 41.9258, "ARG_OF_PERICENTER": 187.4472, "MEAN_ANOMALY": 193.0762, "EPHEMERIS_TYPE": 0, "CLASSIFICATION_TYPE": "U", "NORAD_CAT_ID": 37384, "ELEMENT_SET_NO": 999, "REV_AT_EPOCH": 5378, "BSTAR": 0, "MEAN_MOTION_DOT": -1.96e-06, "MEAN_MOTION_DDOT": 0}, "tle": {"line1": "1 37384U 11013A   25345.65074046 -.00000196  00000+0  00000+0 0  9997", "line2": "2 37384  62.1431  41.9258 0035445 187.4472 193.0762  1.00271037 53789"}}, "geometry": {"type": "Point", "coordinates": [-3.5993871925547323, -53.50424700009985]}}, {"type": "Feature", "properties": {"norad_id": 37763, "name": "BEIDOU-2 IGSO-4 (C09)", "group": "beidou", "lat": 20.87549426919419, "lon": -28.42034407001588, "alt_km": 35622.41414022134, "timestamp": "2025-12-12T09:49:08.996200+00:00", "meta": {"OBJECT_NAME": "BEIDOU-2 IGSO-4 (C09)", "OBJECT_ID": "2011-038A", "EPOCH": "2025-12-10T12:04:03.489024", "MEAN_MOTION": 1.00284678, "ECCENTRICITY": 0.01490344, "INCLINATION": 54.5829, "RA_OF_ASC_NODE": 167.3658, "ARG_OF_PERICENTER": 230.2355, "MEAN_ANOMALY": 317.2212, "EPHEMERIS_TYPE": 0, "CLASSIFICATION_TYPE": "U", "NORAD_CAT_ID": 37763, "ELEMENT_SET_NO": 999, "REV_AT_EPOCH": 5275, "BSTAR": 0, "MEAN_MOTION_DOT": 3.6e-07, "MEAN_MOTION_DDOT": 0}, "tle": {"line1": "1 37763U 11038A   25344.50281816  .00000036  00000+0  00000+0 0  9995", "line2": "2 37763  54.5829 167.3658 0149034 230.2355 317.2212  1.00284678 52751"}}, "geometry": {"type": "Point", "coordinates": [-28.42034407001588, 20.87549426919419]}}, {"type": "Feature", "properties": {"norad_id": 37948, "name": "BEIDOU-2 IGSO-5 (C10)", "group": "beidou", "lat": 33.32940157655305, "lon": -49.934571441014796, "alt_km": 36238.453262809424, "timestamp": "2025-12-12T09:49:08.996212+00:00", "meta": {"OBJECT_NAME": "BEIDOU-2 IGSO-5 (C10)", "OBJECT_ID": "2011-073A", "EPOCH": "2025-12-11T18:52:10.587360", "MEAN_MOTION": 1.00291294, "ECCENTRICITY": 0.0110188, "INCLINATION": 48.0217, "RA_OF_ASC_NODE": 273.869, "ARG_OF_PERICENTER": 222.2695, "MEAN_ANOMALY": 320.5714, "EPHEMERIS_TYPE": 0, "CLASSIFICATION_TYPE": "U", "NORAD_CAT_ID": 37948, "ELEMENT_SET_NO": 999, "REV_AT_EPOCH": 5125, "BSTAR": 0, "MEAN_MOTION_DOT": -2.2e-06, "MEAN_MOTION_DDOT": 0}, "tle": {"line1": "1 37948U 11073A   25345.78623365 -.00000220  00000+0  00000+0 0  9995", "line2": "2 37948  48.0217 273.8690 0110188 222.2695 320.5714  1.00291294 51250"}}, "geometry": {"type": "Point", "coordinates": [-49.934571441014796, 33.32940157655305]}}, {"type": "Feature", "properties": {"norad_id": 38091, "name": "BEIDOU-2 G5 (C05)", "group": "beidou", "lat": -1.8717860583397028, "lon": -72.63972927280535, "alt_km": 35733.06851933182, "timestamp": "2025-12-12T09:49:08.996225+00:00", "meta": {"OBJECT_NAME": "BEIDOU-2 G5 (C05)", "OBJECT_ID": "2012-008A", "EPOCH": "2025-12-12T03:29:14.476416", "MEAN_MOTION": 1.00275381, "ECCENTRICITY": 0.0012583, "INCLINATION": 3.1081, "RA_OF_ASC_NODE": 70.7123, "ARG_OF_PERICENTER": 227.2243, "MEAN_ANOMALY": 254.2507, "EPHEMERIS_TYPE": 0, "CLASSIFICATION_TYPE": "U", "NORAD_CAT_ID": 38091, "ELEMENT_SET_NO": 999, "REV_AT_EPOCH": 5049, "BSTAR": 0, "MEAN_MOTION_DOT": 6.5e-07, "MEAN_MOTION_DDOT": 0}, "tle": {"line1": "1 38091U 12008A   25346.14530644  .00000065  00000+0  00000+0 0  9998", "line2": "2 38091   3.1081  70.7123 0012583 227.2243 254.2507  1.00275381 50497"}}, "geometry": {"type": "Point", "coordinates": [-72.63972927280535, -1.8717860583397028]}}, {"type": "Feature", "properties": {"norad_id": 38250, "name": "BEIDOU-2 M3 (C11)", "group": "beidou", "lat": 42.60328812133406, "lon": -10.368863508173517, "alt_km": 21576.13791627966, "timestamp": "2025-12-12T09:49:08.996252+00:00", "meta": {"OBJECT_NAME": "BEIDOU-2 M3 (C11)", "OBJECT_ID": "2012-018A", "EPOCH": "2025-12-09T02:31:53.071968", "MEAN_MOTION": 1.86229533, "ECCENTRICITY": 0.00244707, "INCLINATION": 55.9232, "RA_OF_ASC_NODE": 311.2798, "ARG_OF_PERICENTER": 273.7022, "MEAN_ANOMALY": 86.0063, "EPHEMERIS_TYPE": 0, "CLASSIFICATION_TYPE": "U", "NORAD_CAT_ID": 38250, "ELEMENT_SET_NO": 999, "REV_AT_EPOCH": 9240, "BSTAR": 0, "MEAN_MOTION_DOT": -7.5e-07, "MEAN_MOTION_DDOT": 0}, "tle": {"line1": "1 38250U 12018A   25343.10547537 -.00000075  00000+0  00000+0 0  9990", "line2": "2 38250  55.9232 311.2798 0024470 273.7022  86.0063  1.86229533 92404"}}, "geometry": {"type": "Point", "coordinates": [-10.368863508173517, 42.60328812133406]}}, {"type": "Feature", "properties": {"norad_id": 38251, "name": "BEIDOU-2 M4 (C12)", "group": "beidou", "lat": 54.482242393557094, "lon": 58.3131642901682, "alt_km": 21565.479404026413, "timestamp": "2025-12-12T09:49:08.996266+00:00", "meta": {"OBJECT_NAME": "BEIDOU-2 M4 (C12)", "OBJECT_ID": "2012-018B", "EPOCH": "2025-12-09T00:54:02.015712", "MEAN_MOTION": 1.86229239, "ECCENTRICITY": 0.001562, "INCLINATION": 55.8247, "RA_OF_ASC_NODE": 310.5113, "ARG_OF_PERICENTER": 276.8164, "MEAN_ANOMALY": 82.9941, "EPHEMERIS_TYPE": 0, "CLASSIFICATION_TYPE": "U", "NORAD_CAT_ID": 38251, "ELEMENT_SET_NO": 999, "REV_AT_EPOCH": 9240, "BSTAR": 0, "MEAN_MOTION_DOT": -7.4e-07, "MEAN_MOTION_DDOT": 0}, "tle": {"line1": "1 38251U 12018B   25343.03752333 -.00000074  00000+0  00000+0 0  9994", "line2": "2 38251  55.8247 310.5113 0015620 276.8164  82.9941  1.86229239 92404"}}, "geometry": {"type": "Point", "coordinates": [58.3131642901682, 54.482242393557094]}}, {"type": "Feature", "properties": {"norad_id": 38775, "name": "BEIDOU-2 M6 (C14)", "group": "beidou", "lat": -49.45030482107947, "lon": 18.130436958473357, "alt_km": 21513.872802990296, "timestamp": "2025-12-12T09:49:08.996278+00:00", "meta": {"OBJECT_NAME": "BEIDOU-2 M6 (C14)", "OBJECT_ID": "2012-050B", "EPOCH": "2025-12-10T21:30:38.140128", "MEAN_MOTION": 1.86230804, "ECCENTRICITY": 0.0011138, "INCLINATION": 56.3769, "RA_OF_ASC_NODE": 69.1285, "ARG_OF_PERICENTER": 344.7378, "MEAN_ANOMALY": 15.2504, "EPHEMERIS_TYPE": 0, "CLASSIFICATION_TYPE": "U", "NORAD_CAT_ID": 38775, "ELEMENT_SET_NO": 999, "REV_AT_EPOCH": 8980, "BSTAR": 0, "MEAN_MOTION_DOT": -5.9e-07, "MEAN_MOTION_DDOT": 0}, "tle": {"line1": "1 38775U 12050B   25344.89627477 -.00000059  00000+0  00000+0 0  9999", "line2": "2 38775  56.3769  69.1285 0011138 344.7378  15.2504  1.86230804 89803"}}, "geometry": {"type": "Point", "coordinates": [18.130436958473357, -49.45030482107947]}}]}